[{"OBJECT_NAME":"ION SCV-014","OBJECT_ID":"2025-009X","EPOCH":"2026-03-09T17:13:35.291712","MEAN_MOTION":15.0488465,"ECCENTRICITY":0.00064503,"INCLINATION":97.4923,"RA_OF_ASC_NODE":144.8636,"ARG_OF_PERICENTER":112.6479,"MEAN_ANOMALY":247.543,"EPHEMERIS_TYPE":0,"CLASSIFICATION_TYPE":"U","NORAD_CAT_ID":62630,"ELEMENT_SET_NO":999,"REV_AT_EPOCH":6302,"BSTAR":0.0001322874,"MEAN_MOTION_DOT":1.812e-5,"MEAN_MOTION_DDOT":0},{"OBJECT_NAME":"STARLINK-34703","OBJECT_ID":"2025-191J","EPOCH":"2026-03-09T15:25:19.693056","MEAN_MOTION":15.05650979,"ECCENTRICITY":0.0002511,"INCLINATION":97.6023,"RA_OF_ASC_NODE":301.5004,"ARG_OF_PERICENTER":76.2496,"MEAN_ANOMALY":283.901,"EPHEMERIS_TYPE":0,"CLASSIFICATION_TYPE":"U","NORAD_CAT_ID":65387,"ELEMENT_SET_NO":999,"REV_AT_EPOCH":3026,"BSTAR":0.00034514,"MEAN_MOTION_DOT":4.923e-5,"MEAN_MOTION_DDOT":0}]
